{"type": "FeatureCollection", "features": [ {"type": "Feature", "properties": {"norad_id": 52912, "name": "GAOFEN-12 03", "group": "resource", "lat": 49.712560199900324, "lon": -123.01311821709005, "alt_km": 624.6676874392142, "timestamp": "2025-12-25T07:00:33.700494+00:00", "meta": {"OBJECT_NAME": "GAOFEN-12 03", "OBJECT_ID": "2022-069A", "EPOCH": "2025-12-24T22:40:03.383040", "MEAN_MOTION": 14.79638922, "ECCENTRICITY": 0.00018321, "INCLINATION": 97.8478, "RA_OF_ASC_NODE": 246.0116, "ARG_OF_PERICENTER": 49.3067, "MEAN_ANOMALY": 310.8304, "EPHEMERIS_TYPE": 0, "CLASSIFICATION_TYPE": "U", "NORAD_CAT_ID": 52912, "ELEMENT_SET_NO": 999, "REV_AT_EPOCH": 18884, "BSTAR": 0.00022501846, "MEAN_MOTION_DOT": 1.637e-05, "MEAN_MOTION_DDOT": 0}, "tle": {"line1": "1 52912U 22069A   25358.94448360  .00001637  00000+0  22502-3 0  9999", "line2": "2 52912  97.8478 246.0116 0001832  49.3067 310.8304 14.79638922188846"}}, "geometry": {"type": "Point", "coordinates": [-123.01311821709005, 49.712560199900324]}}, {"type": "Feature", "properties": {"norad_id": 54754, "name": "SWOT", "group": "resource", "lat": 44.410473445684026, "lon": -77.51907780866668, "alt_km": 888.9965905246172, "timestamp": "2025-12-25T07:00:33.700505+00:00", "meta": {"OBJECT_NAME": "SWOT", "OBJECT_ID": "2022-173A", "EPOCH": "2025-12-24T20:30:07.653600", "MEAN_MOTION": 14.00168631, "ECCENTRICITY": 4.143e-05, "INCLINATION": 77.6108, "RA_OF_ASC_NODE": 270.637, "ARG_OF_PERICENTER": 82.1506, "MEAN_ANOMALY": 277.9693, "EPHEMERIS_TYPE": 0, "CLASSIFICATION_TYPE": "U", "NORAD_CAT_ID": 54754, "ELEMENT_SET_NO": 999, "REV_AT_EPOCH": 15475, "BSTAR": 6.9886595e-05, "MEAN_MOTION_DOT": 1.01e-06, "MEAN_MOTION_DDOT": 0}, "tle": {"line1": "1 54754U 22173A   25358.85425525  .00000101  00000+0  69887-4 0  9992", "line2": "2 54754  77.6108 270.6370 0000414  82.1506 277.9693 14.00168631154757"}}, "geometry": {"type": "Point", "coordinates": [-77.51907780866668, 44.410473445684026]}}, {"type": "Feature", "properties": {"norad_id": 57654, "name": "GAOFEN-12 04", "group": "resource", "lat": -43.90729672741695, "lon": 87.1655867394648, "alt_km": 637.5586852254073, "timestamp": "2025-12-25T07:00:33.700515+00:00", "meta": {"OBJECT_NAME": "GAOFEN-12 04", "OBJECT_ID": "2023-123A", "EPOCH": "2025-12-24T23:30:25.317216", "MEAN_MOTION": 14.79734354, "ECCENTRICITY": 0.0001206, "INCLINATION": 97.9128, "RA_OF_ASC_NODE": 274.5514, "ARG_OF_PERICENTER": 79.8728, "MEAN_ANOMALY": 280.262, "EPHEMERIS_TYPE": 0, "CLASSIFICATION_TYPE": "U", "NORAD_CAT_ID": 57654, "ELEMENT_SET_NO": 999, "REV_AT_EPOCH": 12686, "BSTAR": 0.00019472731, "MEAN_MOTION_DOT": 1.412e-05, "MEAN_MOTION_DDOT": 0}, "tle": {"line1": "1 57654U 23123A   25358.97945969  .00001412  00000+0  19473-3 0  9993", "line2": "2 57654  97.9128 274.5514 0001206  79.8728 280.2620 14.79734354126863"}}, "geometry": {"type": "Point", "coordinates": [87.1655867394648, -43.90729672741695]}}, {"type": "Feature", "properties": {"norad_id": 59065, "name": "PARS 1", "group": "resource", "lat": 28.75945855897945, "lon": 154.6211120140231, "alt_km": 444.7709218227583, "timestamp": "2025-12-25T07:00:33.700525+00:00", "meta": {"OBJECT_NAME": "PARS 1", "OBJECT_ID": "2024-039Q", "EPOCH": "2025-12-24T22:34:00.465024", "MEAN_MOTION": 15.41247311, "ECCENTRICITY": 0.00115718, "INCLINATION": 97.4654, "RA_OF_ASC_NODE": 330.1345, "ARG_OF_PERICENTER": 34.9663, "MEAN_ANOMALY": 325.2341, "EPHEMERIS_TYPE": 0, "CLASSIFICATION_TYPE": "U", "NORAD_CAT_ID": 59065, "ELEMENT_SET_NO": 999, "REV_AT_EPOCH": 10176, "BSTAR": 0.00030469929, "MEAN_MOTION_DOT": 0.00012614, "MEAN_MOTION_DDOT": 0}, "tle": {"line1": "1 59065U 24039Q   25358.94028316  .00012614  00000+0  30470-3 0  9999", "line2": "2 59065  97.4654 330.1345 0011571  34.9663 325.2341 15.41247311101761"}}, "geometry": {"type": "Point", "coordinates": [154.6211120140231, 28.75945855897945]}}, {"type": "Feature", "properties": {"norad_id": 59371, "name": "RESURS-P 4", "group": "resource", "lat": -66.49613612527658, "lon": 108.32930894118016, "alt_km": 477.07554470362356, "timestamp": "2025-12-25T07:00:33.700535+00:00", "meta": {"OBJECT_NAME": "RESURS-P 4", "OBJECT_ID": "2024-061A", "EPOCH": "2025-12-24T23:39:45.476064", "MEAN_MOTION": 15.32192792, "ECCENTRICITY": 8.002e-05, "INCLINATION": 97.2564, "RA_OF_ASC_NODE": 305.0664, "ARG_OF_PERICENTER": 80.1004, "MEAN_ANOMALY": 280.0329, "EPHEMERIS_TYPE": 0, "CLASSIFICATION_TYPE": "U", "NORAD_CAT_ID": 59371, "ELEMENT_SET_NO": 999, "REV_AT_EPOCH": 9708, "BSTAR": 0.00013945897, "MEAN_MOTION_DOT": 4.258e-05, "MEAN_MOTION_DDOT": 0}, "tle": {"line1": "1 59371U 24061A   25358.98594301  .00004258  00000+0  13946-3 0  9994", "line2": "2 59371  97.2564 305.0664 0000800  80.1004 280.0329 15.32192792 97084"}}, "geometry": {"type": "Point", "coordinates": [108.32930894118016, -66.49613612527658]}}, {"type": "Feature", "properties": {"norad_id": 59625, "name": "LEGION 1", "group": "resource", "lat": 50.20508689324459, "lon": -97.05283405516981, "alt_km": 513.1777828323411, "timestamp": "2025-12-25T07:00:33.700545+00:00", "meta": {"OBJECT_NAME": "LEGION 1", "OBJECT_ID": "2024-081A", "EPOCH": "2025-12-24T20:56:26.383776", "MEAN_MOTION": 15.16596311, "ECCENTRICITY": 0.00036005, "INCLINATION": 97.5196, "RA_OF_ASC_NODE": 73.4073, "ARG_OF_PERICENTER": 260.7913, "MEAN_ANOMALY": 99.2913, "EPHEMERIS_TYPE": 0, "CLASSIFICATION_TYPE": "U", "NORAD_CAT_ID": 59625, "ELEMENT_SET_NO": 999, "REV_AT_EPOCH": 9111, "BSTAR": 0.00026913826, "MEAN_MOTION_DOT": 5.191e-05, "MEAN_MOTION_DDOT": 0}, "tle": {"line1": "1 59625U 24081A   25358.87252759  .00005191  00000+0  26914-3 0  9990", "line2": "2 59625  97.5196  73.4073 0003600 260.7913  99.2913 15.16596311 91110"}}, "geometry": {"type": "Point", "coordinates": [-97.05283405516981, 50.20508689324459]}}, {"type": "Feature", "properties": {"norad_id": 59626, "name": "LEGION 2", "group": "resource", "lat": -49.932205753077106, "lon": 82.94688437011855, "alt_km": 521.6542800827838, "timestamp": "2025-12-25T07:00:33.700555+00:00", "meta": {"OBJECT_NAME": "LEGION 2", "OBJECT_ID": "2024-081B", "EPOCH": "2025-12-24T21:43:51.277440", "MEAN_MOTION": 15.16609016, "ECCENTRICITY": 0.00057823, "INCLINATION": 97.5198, "RA_OF_ASC_NODE": 73.528, "ARG_OF_PERICENTER": 240.9981, "MEAN_ANOMALY": 119.0673, "EPHEMERIS_TYPE": 0, "CLASSIFICATION_TYPE": "U", "NORAD_CAT_ID": 59626, "ELEMENT_SET_NO": 999, "REV_AT_EPOCH": 9112, "BSTAR": 0.00029481971, "MEAN_MOTION_DOT": 5.696e-05, "MEAN_MOTION_DDOT": 0}, "tle": {"line1": "1 59626U 24081B   25358.90545460  .00005696  00000+0  29482-3 0  9992", "line2": "2 59626  97.5198  73.5280 0005782 240.9981 119.0673 15.16609016 91124"}}, "geometry": {"type": "Point", "coordinates": [82.94688437011855, -49.932205753077106]}}, {"type": "Feature", "properties": {"norad_id": 60182, "name": "ALOS-4 (DAICHI-4)", "group": "resource", "lat": 81.18141140104744, "lon": -22.197485900464073, "alt_km": 622.5939584087491, "timestamp": "2025-12-25T07:00:33.700566+00:00", "meta": {"OBJECT_NAME": "ALOS-4 (DAICHI-4)", "OBJECT_ID": "2024-123A", "EPOCH": "2025-12-24T09:29:07.451232", "MEAN_MOTION": 14.79477942, "ECCENTRICITY": 0.0001332, "INCLINATION": 97.9223, "RA_OF_ASC_NODE": 93.0761, "ARG_OF_PERICENTER": 100.4362, "MEAN_ANOMALY": 259.7, "EPHEMERIS_TYPE": 0, "CLASSIFICATION_TYPE": "U", "NORAD_CAT_ID": 60182, "ELEMENT_SET_NO": 999, "REV_AT_EPOCH": 8003, "BSTAR": 0.00024038742, "MEAN_MOTION_DOT": 1.744e-05, "MEAN_MOTION_DDOT": 0}, "tle": {"line1": "1 60182U 24123A   25358.39522513  .00001744  00000+0  24039-3 0  9998", "line2": "2 60182  97.9223  93.0761 0001332 100.4362 259.7000 14.79477942 80030"}}, "geometry": {"type": "Point", "coordinates": [-22.197485900464073, 81.18141140104744]}}, {"type": "Feature", "properties": {"norad_id": 60452, "name": "LEGION 3", "group": "resource", "lat": 44.07758038001979, "lon": -41.47351801107758, "alt_km": 522.339788920206, "timestamp": "2025-12-25T07:00:33.700576+00:00", "meta": {"OBJECT_NAME": "LEGION 3", "OBJECT_ID": "2024-146A", "EPOCH": "2025-12-24T21:10:08.331168", "MEAN_MOTION": 15.15880702, "ECCENTRICITY": 0.00157379, "INCLINATION": 45.0001, "RA_OF_ASC_NODE": 245.0348, "ARG_OF_PERICENTER": 263.3658, "MEAN_ANOMALY": 96.543, "EPHEMERIS_TYPE": 0, "CLASSIFICATION_TYPE": "U", "NORAD_CAT_ID": 60452, "ELEMENT_SET_NO": 999, "REV_AT_EPOCH": 7557, "BSTAR": 0.00028626022, "MEAN_MOTION_DOT": 5.326e-05, "MEAN_MOTION_DDOT": 0}, "tle": {"line1": "1 60452U 24146A   25358.88204087  .00005326  00000+0  28626-3 0  9996", "line2": "2 60452  45.0001 245.0348 0015737 263.3658  96.5430 15.15880702 75579"}}, "geometry": {"type": "Point", "coordinates": [-41.47351801107758, 44.07758038001979]}}, {"type": "Feature", "properties": {"norad_id": 60453, "name": "LEGION 4", "group": "resource", "lat": 44.045597586433615, "lon": 49.76400562745291, "alt_km": 508.38829264479773, "timestamp": "2025-12-25T07:00:33.700587+00:00", "meta": {"OBJECT_NAME": "LEGION 4", "OBJECT_ID": "2024-146B", "EPOCH": "2025-12-24T19:35:26.937600", "MEAN_MOTION": 15.15951122, "ECCENTRICITY": 0.00081509, "INCLINATION": 45.0396, "RA_OF_ASC_NODE": 337.1732, "ARG_OF_PERICENTER": 18.3144, "MEAN_ANOMALY": 341.8028, "EPHEMERIS_TYPE": 0, "CLASSIFICATION_TYPE": "U", "NORAD_CAT_ID": 60453, "ELEMENT_SET_NO": 999, "REV_AT_EPOCH": 7441, "BSTAR": 0.00034448409, "MEAN_MOTION_DOT": 6.465e-05, "MEAN_MOTION_DDOT": 0}, "tle": {"line1": "1 60453U 24146B   25358.81628400  .00006465  00000+0  34448-3 0  9993", "line2": "2 60453  45.0396 337.1732 0008150  18.3144 341.8028 15.15951122 74412"}}, "geometry": {"type": "Point", "coordinates": [49.76400562745291, 44.045597586433615]}}]}